H1 CPF 01  gfz 2021 02 14 13  5452 terrasarx 
H2 0702601  6201 31698    2021 02 14 12 59 42 2021 02 19 00 00 42   120 1 1  0 0 0
H9
10 0 59259  63342.000000  0    4321933.968   1174662.495  -5241652.694
10 0 59259  63462.000000  0    4995057.898   1123238.142  -4616978.674
10 0 59259  63582.000000  0    5580169.470   1041275.487  -3911462.512
10 0 59259  63702.000000  0    6066482.945    931814.577  -3137383.785
10 0 59259  63822.000000  0    6444973.112    798551.288  -2308253.322
10 0 59259  63942.000000  0    6708556.014    645742.802  -1438581.086
10 0 59259  64062.000000  0    6852233.954    478099.023   -543620.848
10 0 59259  64182.000000  0    6873199.663    300662.969    360901.635
10 0 59259  64302.000000  0    6770898.556    118683.713   1259071.073
10 0 59259  64422.000000  0    6547046.470    -62516.751   2135071.272
10 0 59259  64542.000000  0    6205600.621   -237677.610   2973473.417
10 0 59259  64662.000000  0    5752684.587   -401731.975   3759515.824
10 0 59259  64782.000000  0    5196470.422   -549933.292   4479368.578
10 0 59259  64902.000000  0    4547023.118   -677973.690   5120380.340
10 0 59259  65022.000000  0    3816106.994   -782091.290   5671300.901
10 0 59259  65142.000000  0    3016962.721   -859162.471   6122474.678
10 0 59259  65262.000000  0    2164059.873   -906779.076   6466004.931
10 0 59259  65382.000000  0    1272830.166   -923308.490   6695886.427
10 0 59259  65502.000000  0     359384.070   -907935.670   6808105.469
10 0 59259  65622.000000  0    -559782.018   -860685.774   6800704.352
10 0 59259  65742.000000  0   -1468082.777   -782427.972   6673812.298
10 0 59259  65862.000000  0   -2349141.691   -674859.511   6429642.985
10 0 59259  65982.000000  0   -3187084.748   -540470.570   6072458.739
10 0 59259  66102.000000  0   -3966827.506   -382490.327   5608502.182
10 0 59259  66222.000000  0   -4674351.094   -204815.600   5045893.830
10 0 59259  66342.000000  0   -5296961.061    -11922.892   4394495.485
10 0 59259  66462.000000  0   -5823523.509    191234.343   3665741.546
10 0 59259  66582.000000  0   -6244673.106    399341.502   2872440.871
10 0 59259  66702.000000  0   -6552989.996    606849.350   2028552.443
10 0 59259  66822.000000  0   -6743140.058    808108.104   1148936.712
10 0 59259  66942.000000  0   -6811974.893    997505.322    249087.889
10 0 59259  67062.000000  0   -6758587.729   1169604.817   -655147.700
10 0 59259  67182.000000  0   -6584322.859   1319282.497  -1547860.051
10 0 59259  67302.000000  0   -6292740.223   1441855.299  -2413362.868
10 0 59259  67422.000000  0   -5889537.581   1533201.964  -3236476.461
10 0 59259  67542.000000  0   -5382428.057   1589870.123  -4002799.628
10 0 59259  67662.000000  0   -4780979.609   1609167.582  -4698961.506
10 0 59259  67782.000000  0   -4096422.062   1589236.763  -5312850.744
10 0 59259  67902.000000  0   -3341426.753   1529110.414  -5833817.991
10 0 59259  68022.000000  0   -2529865.043   1428747.747  -6252850.559
10 0 59259  68142.000000  0   -1676549.356   1289050.534  -6562717.679
10 0 59259  68262.000000  0    -796961.462   1111859.763  -6758083.228
10 0 59259  68382.000000  0      93024.596    899932.050  -6835586.803
10 0 59259  68502.000000  0     977421.396    656897.742  -6793895.078
10 0 59259  68622.000000  0    1840408.739    387199.958  -6633724.769
10 0 59259  68742.000000  0    2666611.034     96015.301  -6357831.063
10 0 59259  68862.000000  0    3441366.189   -210841.711  -5970965.625
10 0 59259  68982.000000  0    4150983.100   -527030.365  -5479802.086
10 0 59259  69102.000000  0    4782983.173   -845809.179  -4892832.241
10 0 59259  69222.000000  0    5326325.390  -1160174.167  -4220231.470
10 0 59259  69342.000000  0    5771607.442  -1463006.705  -3473692.313
10 0 59259  69462.000000  0    6111238.995  -1747228.386  -2666229.313
10 0 59259  69582.000000  0    6339583.029  -2005959.834  -1811957.046
10 0 59259  69702.000000  0    6453060.850  -2232679.492   -925844.393
10 0 59259  69822.000000  0    6450217.819  -2421378.020    -23450.134
10 0 59259  69942.000000  0    6331747.593  -2566704.880    879354.171
10 0 59259  70062.000000  0    6100473.015  -2664103.355   1766676.987
10 0 59259  70182.000000  0    5761283.597  -2709928.888   2622890.606
10 0 59259  70302.000000  0    5321031.143  -2701549.667   3432916.556
10 0 59259  70422.000000  0    4788385.532  -2637424.746   4182498.176
10 0 59259  70542.000000  0    4173657.324  -2517158.907   4858454.088
10 0 59259  70662.000000  0    3488591.411  -2341534.505   5448912.264
10 0 59259  70782.000000  0    2746132.957  -2112517.765   5943517.413
10 0 59259  70902.000000  0    1960175.744  -1833239.678   6333607.593
10 0 59259  71022.000000  0    1145297.219  -1507953.466   6612360.210
10 0 59259  71142.000000  0     316484.765  -1141968.890   6774905.459
10 0 59259  71262.000000  0    -511141.170   -741564.229   6818405.676
10 0 59259  71382.000000  0   -1322602.024   -313878.065   6742100.896
10 0 59259  71502.000000  0   -2103330.855    133217.634   6547321.256
10 0 59259  71622.000000  0   -2839432.780    591261.814   6237465.589
10 0 59259  71742.000000  0   -3517932.717   1051363.357   5817946.468
10 0 59259  71862.000000  0   -4127007.014   1504372.351   5296102.012
10 0 59259  71982.000000  0   -4656195.231   1941061.032   4681073.955
10 0 59259  72102.000000  0   -5096587.061   2352311.641   3983652.433
10 0 59259  72222.000000  0   -5440979.844   2729306.793   3216089.797
10 0 59259  72342.000000  0   -5684003.597   3063717.820   2391886.799
10 0 59259  72462.000000  0   -5822211.757   3347887.597   1525554.315
10 0 59259  72582.000000  0   -5854134.351   3575003.708    632352.701
10 0 59259  72702.000000  0   -5780289.561   3739255.499   -271984.898
10 0 59259  72822.000000  0   -5603155.839   3835971.749  -1171537.905
10 0 59259  72942.000000  0   -5327104.962   3861736.505  -2050487.761
10 0 59259  73062.000000  0   -4958295.561   3814478.329  -2893405.555
10 0 59259  73182.000000  0   -4504531.388   3693531.322  -3685528.390
10 0 59259  73302.000000  0   -3975088.790   3499666.646  -4413019.571
10 0 59259  73422.000000  0   -3380519.648   3235095.394  -5063207.564
10 0 59259  73542.000000  0   -2732434.145   2903442.563  -5624799.576
10 0 59259  73662.000000  0   -2043270.603   2509694.659  -6088068.718
10 0 59259  73782.000000  0   -1326053.581   2060120.702  -6445012.550
10 0 59259  73902.000000  0    -594147.791   1562169.004  -6689478.807
10 0 59259  74022.000000  0     138987.491   1024342.962  -6817260.868
10 0 59259  74142.000000  0     860039.803    456057.281  -6826162.025
10 0 59259  74262.000000  0    1556080.035   -132523.441  -6716030.884
10 0 59259  74382.000000  0    2214789.361   -730662.780  -6488762.299
10 0 59259  74502.000000  0    2824672.119  -1327243.036  -6148268.423
10 0 59259  74622.000000  0    3375254.089  -1910966.619  -5700418.250
10 0 59259  74742.000000  0    3857262.579  -2470565.358  -5152947.779
10 0 59259  74862.000000  0    4262787.083  -2995017.140  -4515337.555
10 0 59259  74982.000000  0    4585413.547  -3473763.126  -3798658.214
10 0 59259  75102.000000  0    4820332.257  -3896921.103  -3015388.164
10 0 59259  75222.000000  0    4964417.410  -4255492.212  -2179203.244
10 0 59259  75342.000000  0    5016274.273  -4541554.911  -1304740.709
10 0 59259  75462.000000  0    4976252.765  -4748442.218   -407342.151
10 0 59259  75582.000000  0    4846424.999  -4870896.817    497220.594
10 0 59259  75702.000000  0    4630527.847  -4905198.890   1393030.102
10 0 59259  75822.000000  0    4333871.478  -4849263.063   2264312.748
10 0 59259  75942.000000  0    3963215.828  -4702702.497   3095724.585
10 0 59259  76062.000000  0    3526619.466  -4466858.770   3872629.054
10 0 59259  76182.000000  0    3033263.053  -4144796.117   4581360.110
10 0 59259  76302.000000  0    2493253.424  -3741260.301   5209464.924
10 0 59259  76422.000000  0    1917413.287  -3262604.593   5745921.975
10 0 59259  76542.000000  0    1317060.577  -2716683.823   6181331.833
10 0 59259  76662.000000  0     703783.241  -2112719.678   6508075.844
10 0 59259  76782.000000  0      89213.992  -1461141.065   6720443.008
10 0 59259  76902.000000  0    -515190.099   -773401.714   6814724.063
10 0 59259  77022.000000  0   -1098360.050    -61777.223   6789272.302
10 0 59259  77142.000000  0   -1649816.865    660853.844   6644530.373
10 0 59259  77262.000000  0   -2159859.231   1381242.366   6383022.988
10 0 59259  77382.000000  0   -2619734.509   2086010.571   6009315.703
10 0 59259  77502.000000  0   -3021790.091   2761900.199   5529940.463
10 0 59259  77622.000000  0   -3359603.551   3396023.530   4953288.062
10 0 59259  77742.000000  0   -3628089.293   3976112.076   4289467.329
10 0 59259  77862.000000  0   -3823578.668   4490759.058   3550132.841
10 0 59259  77982.000000  0   -3943871.768   4929650.045   2748282.691
10 0 59259  78102.000000  0   -3988259.503   5283775.902   1898028.683
10 0 59259  78222.000000  0   -3957514.366   5545622.024   1014344.425
10 0 59259  78342.000000  0   -3853851.863   5709330.461    112796.633
10 0 59259  78462.000000  0   -3680862.894   5770831.412   -790737.465
10 0 59259  78582.000000  0   -3443416.385   5727937.530  -1680360.469
10 0 59259  78702.000000  0   -3147535.815   5580398.877  -2540444.399
10 0 59259  78822.000000  0   -2800252.068   5329918.587  -3355911.150
10 0 59259  78942.000000  0   -2409440.344   4980129.388  -4112499.865
10 0 59259  79062.000000  0   -1983643.154   4536531.781  -4797015.667
10 0 59259  79182.000000  0   -1531884.551   4006397.294  -5397553.642
10 0 59259  79302.000000  0   -1063480.869   3398641.136  -5903698.099
10 0 59259  79422.000000  0    -587850.336   2723664.394  -6306694.519
10 0 59259  79542.000000  0    -114325.936   1993169.862  -6599589.424
10 0 59259  79662.000000  0     348023.522   1219957.550  -6777338.794
10 0 59259  79782.000000  0     790562.334    417701.936  -6836886.525
99
